[{"OBJECT_NAME":"PERSEUS-M2","OBJECT_ID":"2014-033AD","EPOCH":"2026-03-09T23:04:40.733184","MEAN_MOTION":14.95162748,"ECCENTRICITY":0.00103419,"INCLINATION":97.987,"RA_OF_ASC_NODE":17.5706,"ARG_OF_PERICENTER":270.5936,"MEAN_ANOMALY":89.4099,"EPHEMERIS_TYPE":0,"CLASSIFICATION_TYPE":"U","NORAD_CAT_ID":40037,"ELEMENT_SET_NO":999,"REV_AT_EPOCH":63595,"BSTAR":0.00023993519,"MEAN_MOTION_DOT":2.576e-5,"MEAN_MOTION_DDOT":0},{"OBJECT_NAME":"IRIDE-MS2-HEO-5","OBJECT_ID":"2025-135AV","EPOCH":"2026-03-09T22:29:41.176896","MEAN_MOTION":14.9349765,"ECCENTRICITY":0.0001273,"INCLINATION":97.7596,"RA_OF_ASC_NODE":184.3874,"ARG_OF_PERICENTER":293.2416,"MEAN_ANOMALY":66.867,"EPHEMERIS_TYPE":0,"CLASSIFICATION_TYPE":"U","NORAD_CAT_ID":64571,"ELEMENT_SET_NO":999,"REV_AT_EPOCH":3907,"BSTAR":0.00038834386,"MEAN_MOTION_DOT":4.032e-5,"MEAN_MOTION_DDOT":0}]
